{
 "attribution": "Contains public sector information licensed under the Open Government Licence v3.0. Source: Planning Inspectorate decisions published on GOV.UK.",
 "features": [
  {
   "geometry": {
    "coordinates": [
     [
      -2.7173,
      50.82426
     ],
     [
      -2.71661,
      50.82393
     ],
     [
      -2.71618,
      50.82372
     ],
     [
      -2.71557,
      50.82348
     ],
     [
      -2.71516,
      50.82334
     ],
     [
      -2.71472,
      50.82319
     ],
     [
      -2.7144,
      50.8231
     ],
     [
      -2.71425,
      50.82306
     ],
     [
      -2.71384,
      50.82297
     ],
     [
      -2.7133,
      50.82279
     ],
     [
      -2.71222,
      50.82247
     ],
     [
      -2.71171,
      50.82228
     ],
     [
      -2.71057,
      50.8218
     ],
     [
      -2.71015,
      50.82167
     ],
     [
      -2.70942,
      50.82136
     ],
     [
      -2.70921,
      50.82126
     ],
     [
      -2.70892,
      50.82103
     ],
     [
      -2.70854,
      50.82084
     ],
     [
      -2.70827,
      50.82066
     ],
     [
      -2.70777,
      50.82017
     ],
     [
      -2.70747,
      50.81993
     ],
     [
      -2.70672,
      50.81942
     ],
     [
      -2.70606,
      50.81907
     ],
     [
      -2.7057,
      50.81882
     ],
     [
      -2.70565,
      50.81876
     ],
     [
      -2.70558,
      50.81866
     ],
     [
      -2.70552,
      50.81858
     ],
     [
      -2.70537,
      50.81841
     ],
     [
      -2.70489,
      50.81785
     ],
     [
      -2.7042,
      50.81684
     ],
     [
      -2.70387,
      50.81639
     ],
     [
      -2.7036,
      50.81597
     ],
     [
      -2.70305,
      50.81497
     ],
     [
      -2.70206,
      50.81327
     ],
     [
      -2.7017,
      50.81271
     ],
     [
      -2.70149,
      50.81245
     ],
     [
      -2.7014,
      50.81237
     ],
     [
      -2.70128,
      50.81231
     ]
    ],
    "type": "LineString"
   },
   "properties": {
    "council": "Dorset Council",
    "decided": "2023-07-27",
    "effect": "add-or-upgrade-to-boat",
    "kind": "orders",
    "letter": "https://assets.publishing.service.gov.uk/media/650027ff1886eb000d977161/ROW_3278538_interim_OD.docx",
    "match": "grid",
    "outcome": "unknown",
    "page": "https://www.gov.uk/guidance/rights-of-way-order-information-decisions-and-maps-published-in-2023",
    "ref": "ROW/3278538",
    "source": "pins-decisions",
    "title": "(A Byway Open to All Traffic, Beaminster at Crabb’s Barn Lane) Definitive Map and Statement Modification Order 2020",
    "ways": [
     "DT-97-d7431062c3"
    ]
   },
   "type": "Feature"
  }
 ],
 "note": "A decision on an order that adds, upgrades, downgrades or deletes a byway. The definitive map changes when the council records the order; until then the lane is drawn as the map stood.",
 "type": "FeatureCollection"
}
